[{"OBJECT_NAME":"SAUDISAT 5A","OBJECT_ID":"2018-102A","EPOCH":"2026-03-09T23:40:00.596928","MEAN_MOTION":15.26941021,"ECCENTRICITY":0.00113651,"INCLINATION":97.3185,"RA_OF_ASC_NODE":132.4981,"ARG_OF_PERICENTER":121.7113,"MEAN_ANOMALY":238.5235,"EPHEMERIS_TYPE":0,"CLASSIFICATION_TYPE":"U","NORAD_CAT_ID":43831,"ELEMENT_SET_NO":999,"REV_AT_EPOCH":40053,"BSTAR":0.00030305233,"MEAN_MOTION_DOT":7.96e-5,"MEAN_MOTION_DDOT":0},{"OBJECT_NAME":"STARLINK-34846","OBJECT_ID":"2025-288P","EPOCH":"2026-03-09T21:56:39.669792","MEAN_MOTION":15.27599691,"ECCENTRICITY":6.339e-5,"INCLINATION":42.999,"RA_OF_ASC_NODE":22.0204,"ARG_OF_PERICENTER":163.4143,"MEAN_ANOMALY":196.6729,"EPHEMERIS_TYPE":0,"CLASSIFICATION_TYPE":"U","NORAD_CAT_ID":66972,"ELEMENT_SET_NO":999,"REV_AT_EPOCH":1532,"BSTAR":0.0013731567,"MEAN_MOTION_DOT":0.0003774,"MEAN_MOTION_DDOT":0}]
